ORBCOMM FM20            
1 25416U 98046D   24114.81420358  .00002998  00000+0  10889-2 0  9993
2 25416  44.9953   4.1373 0000821 338.5577  21.5236 14.35136170344013
ORBCOMM FM16            
1 25417U 98046E   24116.59285091  .00003903  00000+0  13757-2 0  9998
2 25417  44.9953 351.6242 0004073   0.0273   0.0574 14.36107380344161
ORBCOMM FM15            
1 25418U 98046F   24116.61617242  .00003437  00000+0  12239-2 0  9995
2 25418  44.9982 355.5382 0003769   2.4750 357.6115 14.35833985344178
ORBCOMM FM14            
1 25419U 98046G   24116.11628573  .00004345  00000+0  15296-2 0  9995
2 25419  44.9974 357.0356 0002710 348.2824 168.4400 14.35992829344051
ORBCOMM FM13            
1 25420U 98046H   24115.07999841  .00003555  00000+0  12783-2 0  9990
2 25420  44.9983   6.7130 0004892 336.6746  23.3879 14.35279991342974
ORBCOMM FM21            
1 25475U 98053A   24116.28284390  .00003094  00000+0  11200-2 0  9999
2 25475  45.0073  85.3299 0002458 301.8794  58.1814 14.35230098337163
ORBCOMM FM22            
1 25476U 98053B   24116.26599998  .00003526  00000+0  12565-2 0  9996
2 25476  45.0070  82.7570 0003983 294.4498  65.5933 14.35745959337156
ORBCOMM FM23            
1 25477U 98053C   24116.31153412  .00003726  00000+0  13376-2 0  9993
2 25477  45.0072  87.6265 0003413 296.4111  63.6386 14.35269954337311
